{"type": "FeatureCollection", "features": [ {"type": "Feature", "properties": {"norad_id": 54234, "name": "NOAA 21 (JPSS-2)", "group": "weather", "lat": -52.48808353118155, "lon": 82.06447677333847, "alt_km": 835.7394591550237, "timestamp": "2025-12-03T04:52:29.284205+00:00", "meta": {"OBJECT_NAME": "NOAA 21 (JPSS-2)", "OBJECT_ID": "2022-150A", "EPOCH": "2025-12-02T19:19:15.087072", "MEAN_MOTION": 14.19519656, "ECCENTRICITY": 0.0002545, "INCLINATION": 98.7447, "RA_OF_ASC_NODE": 273.2379, "ARG_OF_PERICENTER": 56.5226, "MEAN_ANOMALY": 303.6193, "EPHEMERIS_TYPE": 0, "CLASSIFICATION_TYPE": "U", "NORAD_CAT_ID": 54234, "ELEMENT_SET_NO": 999, "REV_AT_EPOCH": 15868, "BSTAR": 8.9706e-05, "MEAN_MOTION_DOT": 1.45e-06, "MEAN_MOTION_DDOT": 0}, "tle": {"line1": "1 54234U 22150A   25336.80503573  .00000145  00000+0  89706-4 0  9991", "line2": "2 54234  98.7447 273.2379 0002545  56.5226 303.6193 14.19519656158684"}}, "geometry": {"type": "Point", "coordinates": [82.06447677333847, -52.48808353118155]}}, {"type": "Feature", "properties": {"norad_id": 54743, "name": "METEOSAT-12 (MTG-I1)", "group": "weather", "lat": 0.6442731311079922, "lon": 145.08648390842998, "alt_km": 35786.476836143906, "timestamp": "2025-12-03T04:52:29.284216+00:00", "meta": {"OBJECT_NAME": "METEOSAT-12 (MTG-I1)", "OBJECT_ID": "2022-170C", "EPOCH": "2025-12-02T17:12:31.734144", "MEAN_MOTION": 1.00273571, "ECCENTRICITY": 0.0001477, "INCLINATION": 0.7163, "RA_OF_ASC_NODE": 29.8845, "ARG_OF_PERICENTER": 214.3422, "MEAN_ANOMALY": 85.4278, "EPHEMERIS_TYPE": 0, "CLASSIFICATION_TYPE": "U", "NORAD_CAT_ID": 54743, "ELEMENT_SET_NO": 999, "REV_AT_EPOCH": 1100, "BSTAR": 0, "MEAN_MOTION_DOT": 1.3e-07, "MEAN_MOTION_DDOT": 0}, "tle": {"line1": "1 54743U 22170C   25336.71703396  .00000013  00000+0  00000+0 0  9992", "line2": "2 54743   0.7163  29.8845 0001477 214.3422  85.4278  1.00273571 11007"}}, "geometry": {"type": "Point", "coordinates": [145.08648390842998, 0.6442731311079922]}}, {"type": "Feature", "properties": {"norad_id": 55973, "name": "TIANMU-1 03", "group": "weather", "lat": -34.52430949525108, "lon": 144.79793722296762, "alt_km": 452.68322931868715, "timestamp": "2025-12-03T04:52:29.284228+00:00", "meta": {"OBJECT_NAME": "TIANMU-1 03", "OBJECT_ID": "2023-039A", "EPOCH": "2025-12-02T19:40:19.500960", "MEAN_MOTION": 15.40471434, "ECCENTRICITY": 0.0004547, "INCLINATION": 97.5101, "RA_OF_ASC_NODE": 139.1973, "ARG_OF_PERICENTER": 89.5867, "MEAN_ANOMALY": 270.59, "EPHEMERIS_TYPE": 0, "CLASSIFICATION_TYPE": "U", "NORAD_CAT_ID": 55973, "ELEMENT_SET_NO": 999, "REV_AT_EPOCH": 15053, "BSTAR": 0.00046947, "MEAN_MOTION_DOT": 0.00018966, "MEAN_MOTION_DDOT": 0}, "tle": {"line1": "1 55973U 23039A   25336.81967015  .00018966  00000+0  46947-3 0  9994", "line2": "2 55973  97.5101 139.1973 0004547  89.5867 270.5900 15.40471434150530"}}, "geometry": {"type": "Point", "coordinates": [144.79793722296762, -34.52430949525108]}}, {"type": "Feature", "properties": {"norad_id": 55974, "name": "TIANMU-1 04", "group": "weather", "lat": 66.59853975000685, "lon": 121.05432312757014, "alt_km": 433.8072502409959, "timestamp": "2025-12-03T04:52:29.284239+00:00", "meta": {"OBJECT_NAME": "TIANMU-1 04", "OBJECT_ID": "2023-039B", "EPOCH": "2025-12-02T19:13:48.398304", "MEAN_MOTION": 15.4080049, "ECCENTRICITY": 0.0005235, "INCLINATION": 97.5033, "RA_OF_ASC_NODE": 138.3736, "ARG_OF_PERICENTER": 85.7587, "MEAN_ANOMALY": 274.4257, "EPHEMERIS_TYPE": 0, "CLASSIFICATION_TYPE": "U", "NORAD_CAT_ID": 55974, "ELEMENT_SET_NO": 999, "REV_AT_EPOCH": 15053, "BSTAR": 0.00049135, "MEAN_MOTION_DOT": 0.00020076, "MEAN_MOTION_DDOT": 0}, "tle": {"line1": "1 55974U 23039B   25336.80125461  .00020076  00000+0  49135-3 0  9992", "line2": "2 55974  97.5033 138.3736 0005235  85.7587 274.4257 15.40800490150531"}}, "geometry": {"type": "Point", "coordinates": [121.05432312757014, 66.59853975000685]}}, {"type": "Feature", "properties": {"norad_id": 55975, "name": "TIANMU-1 05", "group": "weather", "lat": 66.21107277570131, "lon": -23.31353517934996, "alt_km": 435.44712838391933, "timestamp": "2025-12-03T04:52:29.284250+00:00", "meta": {"OBJECT_NAME": "TIANMU-1 05", "OBJECT_ID": "2023-039C", "EPOCH": "2025-12-02T20:35:34.552320", "MEAN_MOTION": 15.40431924, "ECCENTRICITY": 0.0004313, "INCLINATION": 97.5079, "RA_OF_ASC_NODE": 138.9237, "ARG_OF_PERICENTER": 106.2286, "MEAN_ANOMALY": 253.9434, "EPHEMERIS_TYPE": 0, "CLASSIFICATION_TYPE": "U", "NORAD_CAT_ID": 55975, "ELEMENT_SET_NO": 999, "REV_AT_EPOCH": 15052, "BSTAR": 0.00048033, "MEAN_MOTION_DOT": 0.00019382, "MEAN_MOTION_DDOT": 0}, "tle": {"line1": "1 55975U 23039C   25336.85803880  .00019382  00000+0  48033-3 0  9990", "line2": "2 55975  97.5079 138.9237 0004313 106.2286 253.9434 15.40431924150525"}}, "geometry": {"type": "Point", "coordinates": [-23.31353517934996, 66.21107277570131]}}, {"type": "Feature", "properties": {"norad_id": 55976, "name": "TIANMU-1 06", "group": "weather", "lat": 53.194657324490336, "lon": 129.58150335421254, "alt_km": 436.4177196877172, "timestamp": "2025-12-03T04:52:29.284261+00:00", "meta": {"OBJECT_NAME": "TIANMU-1 06", "OBJECT_ID": "2023-039D", "EPOCH": "2025-12-02T19:17:25.519776", "MEAN_MOTION": 15.4085339, "ECCENTRICITY": 0.0004654, "INCLINATION": 97.5091, "RA_OF_ASC_NODE": 139.325, "ARG_OF_PERICENTER": 101.9293, "MEAN_ANOMALY": 258.2475, "EPHEMERIS_TYPE": 0, "CLASSIFICATION_TYPE": "U", "NORAD_CAT_ID": 55976, "ELEMENT_SET_NO": 999, "REV_AT_EPOCH": 15053, "BSTAR": 0.00048591, "MEAN_MOTION_DOT": 0.00019885, "MEAN_MOTION_DDOT": 0}, "tle": {"line1": "1 55976U 23039D   25336.80376759  .00019885  00000+0  48591-3 0  9993", "line2": "2 55976  97.5091 139.3250 0004654 101.9293 258.2475 15.40853390150537"}}, "geometry": {"type": "Point", "coordinates": [129.58150335421254, 53.194657324490336]}}, {"type": "Feature", "properties": {"norad_id": 56232, "name": "FENGYUN 3G", "group": "weather", "lat": 1.3146172342721412, "lon": -82.26128722611729, "alt_km": 410.2086032991592, "timestamp": "2025-12-03T04:52:29.284271+00:00", "meta": {"OBJECT_NAME": "FENGYUN 3G", "OBJECT_ID": "2023-055A", "EPOCH": "2025-12-02T19:36:02.232864", "MEAN_MOTION": 15.52731117, "ECCENTRICITY": 0.000924, "INCLINATION": 49.9947, "RA_OF_ASC_NODE": 278.6268, "ARG_OF_PERICENTER": 100.8142, "MEAN_ANOMALY": 259.3866, "EPHEMERIS_TYPE": 0, "CLASSIFICATION_TYPE": "U", "NORAD_CAT_ID": 56232, "ELEMENT_SET_NO": 999, "REV_AT_EPOCH": 14948, "BSTAR": 0.00061176, "MEAN_MOTION_DOT": 0.00038328, "MEAN_MOTION_DDOT": 0}, "tle": {"line1": "1 56232U 23055A   25336.81669251  .00038328  00000+0  61176-3 0  9997", "line2": "2 56232  49.9947 278.6268 0009240 100.8142 259.3866 15.52731117149480"}}, "geometry": {"type": "Point", "coordinates": [-82.26128722611729, 1.3146172342721412]}}, {"type": "Feature", "properties": {"norad_id": 57166, "name": "METEOR-M2 3", "group": "weather", "lat": -14.422565761934699, "lon": 33.14925479215012, "alt_km": 814.2686330550223, "timestamp": "2025-12-03T04:52:29.284281+00:00", "meta": {"OBJECT_NAME": "METEOR-M2 3", "OBJECT_ID": "2023-091A", "EPOCH": "2025-12-02T20:30:41.447232", "MEAN_MOTION": 14.24024105, "ECCENTRICITY": 0.0004431, "INCLINATION": 98.6394, "RA_OF_ASC_NODE": 30.566, "ARG_OF_PERICENTER": 35.2592, "MEAN_ANOMALY": 324.8879, "EPHEMERIS_TYPE": 0, "CLASSIFICATION_TYPE": "U", "NORAD_CAT_ID": 57166, "ELEMENT_SET_NO": 999, "REV_AT_EPOCH": 12657, "BSTAR": 3.8738e-05, "MEAN_MOTION_DOT": 4.5e-07, "MEAN_MOTION_DDOT": 0}, "tle": {"line1": "1 57166U 23091A   25336.85464638  .00000045  00000+0  38738-4 0  9994", "line2": "2 57166  98.6394  30.5660 0004431  35.2592 324.8879 14.24024105126579"}}, "geometry": {"type": "Point", "coordinates": [33.14925479215012, -14.422565761934699]}}, {"type": "Feature", "properties": {"norad_id": 57399, "name": "TIANMU-1 07", "group": "weather", "lat": -30.18219313756347, "lon": -157.00487217776282, "alt_km": 489.2855681968231, "timestamp": "2025-12-03T04:52:29.284292+00:00", "meta": {"OBJECT_NAME": "TIANMU-1 07", "OBJECT_ID": "2023-101A", "EPOCH": "2025-12-02T20:05:53.556288", "MEAN_MOTION": 15.27842576, "ECCENTRICITY": 0.0005582, "INCLINATION": 97.2898, "RA_OF_ASC_NODE": 26.9072, "ARG_OF_PERICENTER": 106.6546, "MEAN_ANOMALY": 253.5307, "EPHEMERIS_TYPE": 0, "CLASSIFICATION_TYPE": "U", "NORAD_CAT_ID": 57399, "ELEMENT_SET_NO": 999, "REV_AT_EPOCH": 13164, "BSTAR": 0.000371, "MEAN_MOTION_DOT": 0.00010021, "MEAN_MOTION_DDOT": 0}, "tle": {"line1": "1 57399U 23101A   25336.83742542  .00010021  00000+0  37100-3 0  9991", "line2": "2 57399  97.2898  26.9072 0005582 106.6546 253.5307 15.27842576131649"}}, "geometry": {"type": "Point", "coordinates": [-157.00487217776282, -30.18219313756347]}}, {"type": "Feature", "properties": {"norad_id": 57400, "name": "TIANMU-1 08", "group": "weather", "lat": 32.08158815023783, "lon": 22.462605714552275, "alt_km": 479.44146211048155, "timestamp": "2025-12-03T04:52:29.284305+00:00", "meta": {"OBJECT_NAME": "TIANMU-1 08", "OBJECT_ID": "2023-101B", "EPOCH": "2025-12-02T20:52:27.111072", "MEAN_MOTION": 15.27828627, "ECCENTRICITY": 0.0007448, "INCLINATION": 97.2886, "RA_OF_ASC_NODE": 26.7385, "ARG_OF_PERICENTER": 111.601, "MEAN_ANOMALY": 248.6024, "EPHEMERIS_TYPE": 0, "CLASSIFICATION_TYPE": "U", "NORAD_CAT_ID": 57400, "ELEMENT_SET_NO": 999, "REV_AT_EPOCH": 13164, "BSTAR": 0.00036264, "MEAN_MOTION_DOT": 9.793e-05, "MEAN_MOTION_DDOT": 0}, "tle": {"line1": "1 57400U 23101B   25336.86975823  .00009793  00000+0  36264-3 0  9991", "line2": "2 57400  97.2886  26.7385 0007448 111.6010 248.6024 15.27828627131641"}}, "geometry": {"type": "Point", "coordinates": [22.462605714552275, 32.08158815023783]}}]}